start=new Date('2022-11-18T00:00:00.000Z').valueOf();
sats=[{"BSTAR":"0.00000962940000","NORAD_CAT_ID":"53169","MEAN_MOTION":"15.08835873","PERIOD":"95.438","SITE":"AFETR","OBJECT_NAME":"STARLINK-4117","ARG_OF_PERICENTER":"53.6418","OBJECT_ID":"2022-083AP","TLE_LINE2":"2 53169  53.2143 171.9791 0001832  53.6418 306.4743 15.08835873 19195","REV_AT_EPOCH":"1919","EPHEMERIS_TYPE":"0","TLE_LINE1":"1 53169U 22083AP  22321.70373352 -.00000135  00000-0  96294-5 0  9994","CLASSIFICATION_TYPE":"U","ELEMENT_SET_NO":"999","MEAN_ANOMALY":"306.4743","ECCENTRICITY":"0.00018320","REF_FRAME":"TEME","OBJECT_TYPE":"PAYLOAD","APOAPSIS":"541.025","GP_ID":"218099143","FILE":"3661914","EPOCH":"2022-11-17T16:53:22.576128","RCS_SIZE":"LARGE","PERIAPSIS":"538.491","CENTER_NAME":"EARTH","DECAY_DATE":null,"LAUNCH_DATE":"2022-07-17","TIME_SYSTEM":"UTC","COUNTRY_CODE":"US","SEMIMAJOR_AXIS":"6917.893","MEAN_MOTION_DOT":"-0.00000135","INCLINATION":"53.2143","MEAN_MOTION_DDOT":"0.0000000000000","RA_OF_ASC_NODE":"171.9791","MEAN_ELEMENT_THEORY":"SGP4"},{"BSTAR":"0.00003348400000","NORAD_CAT_ID":"53170","MEAN_MOTION":"15.08847142","PERIOD":"95.437","OBJECT_NAME":"STARLINK-4095","SITE":"AFETR","OBJECT_ID":"2022-083AQ","ARG_OF_PERICENTER":"47.6615","REV_AT_EPOCH":"1896","TLE_LINE2":"2 53170  53.2155 184.9528 0002008  47.6615 312.4547 15.08847142 18965","CLASSIFICATION_TYPE":"U","TLE_LINE1":"1 53170U 22083AQ  22321.04040472  .00000245  00000-0  33484-4 0  9999","ELEMENT_SET_NO":"999","EPHEMERIS_TYPE":"0","ECCENTRICITY":"0.00020080","MEAN_ANOMALY":"312.4547","REF_FRAME":"TEME","GP_ID":"218067988","APOAPSIS":"541.113","OBJECT_TYPE":"PAYLOAD","FILE":"3661693","EPOCH":"2022-11-17T00:58:10.967808","RCS_SIZE":"LARGE","PERIAPSIS":"538.334","LAUNCH_DATE":"2022-07-17","DECAY_DATE":null,"TIME_SYSTEM":"UTC","CENTER_NAME":"EARTH","MEAN_MOTION_DOT":"0.00000245","COUNTRY_CODE":"US","SEMIMAJOR_AXIS":"6917.859","MEAN_MOTION_DDOT":"0.0000000000000","INCLINATION":"53.2155","RA_OF_ASC_NODE":"184.9528","MEAN_ELEMENT_THEORY":"SGP4"},{"OBJECT_ID":"2022-083AR","ARG_OF_PERICENTER":"207.3100","OBJECT_NAME":"STARLINK-4052","SITE":"AFETR","PERIOD":"93.107","MEAN_MOTION":"15.46607935","NORAD_CAT_ID":"53171","BSTAR":"-0.00182160000000","REV_AT_EPOCH":"1937","TLE_LINE2":"2 53171  53.2121 158.8937 0001938 207.3100 152.7807 15.46607935 19374","EPOCH":"2022-11-17T15:49:21.950976","FILE":"3661914","APOAPSIS":"427.978","GP_ID":"218098145","OBJECT_TYPE":"PAYLOAD","REF_FRAME":"TEME","MEAN_ANOMALY":"152.7807","ECCENTRICITY":"0.00019380","ELEMENT_SET_NO":"999","TLE_LINE1":"1 53171U 22083AR  22321.65928184 -.00091562  00000-0 -18216-2 0  9990","CLASSIFICATION_TYPE":"U","EPHEMERIS_TYPE":"0","MEAN_ELEMENT_THEORY":"SGP4","RA_OF_ASC_NODE":"158.8937","MEAN_MOTION_DDOT":"0.0000000000000","INCLINATION":"53.2121","MEAN_MOTION_DOT":"-0.00091562","COUNTRY_CODE":"US","SEMIMAJOR_AXIS":"6804.795","LAUNCH_DATE":"2022-07-17","DECAY_DATE":null,"TIME_SYSTEM":"UTC","CENTER_NAME":"EARTH","PERIAPSIS":"425.341","RCS_SIZE":"LARGE"},{"EPHEMERIS_TYPE":"0","TLE_LINE1":"1 53172U 22083AS  22321.89785389 -.00000880  00000-0 -37202-4 0  9996","CLASSIFICATION_TYPE":"U","ELEMENT_SET_NO":"999","ECCENTRICITY":"0.00019420","MEAN_ANOMALY":"300.7202","FILE":"3661914","EPOCH":"2022-11-17T21:32:54.576096","REF_FRAME":"TEME","OBJECT_TYPE":"PAYLOAD","GP_ID":"218098311","APOAPSIS":"541.097","DECAY_DATE":null,"CENTER_NAME":"EARTH","LAUNCH_DATE":"2022-07-17","TIME_SYSTEM":"UTC","COUNTRY_CODE":"US","SEMIMAJOR_AXIS":"6917.889","MEAN_MOTION_DOT":"-0.00000880","RCS_SIZE":"LARGE","PERIAPSIS":"538.410","RA_OF_ASC_NODE":"181.0997","MEAN_ELEMENT_THEORY":"SGP4","INCLINATION":"53.2156","MEAN_MOTION_DDOT":"0.0000000000000","NORAD_CAT_ID":"53172","MEAN_MOTION":"15.08837207","BSTAR":"-0.00003720200000","SITE":"AFETR","OBJECT_NAME":"STARLINK-4299","ARG_OF_PERICENTER":"59.3982","OBJECT_ID":"2022-083AS","PERIOD":"95.438","REV_AT_EPOCH":"1908","TLE_LINE2":"2 53172  53.2156 181.0997 0001942  59.3982 300.7202 15.08837207 19082"},{"BSTAR":"-0.05606600000000","MEAN_MOTION":"15.18262915","NORAD_CAT_ID":"53173","PERIOD":"94.845","ARG_OF_PERICENTER":"99.0048","OBJECT_ID":"2022-083AT","SITE":"AFETR","OBJECT_NAME":"STARLINK-4300","TLE_LINE2":"2 53173  53.2159 161.1796 0001235  99.0048 223.1798 15.18262915  1304","REV_AT_EPOCH":"130","ECCENTRICITY":"0.00012350","MEAN_ANOMALY":"223.1798","EPHEMERIS_TYPE":"0","ELEMENT_SET_NO":"999","TLE_LINE1":"1 53173U 22083AT  22321.91667824 -.01077312  00000-0 -56066-1 0  9994","CLASSIFICATION_TYPE":"U","OBJECT_TYPE":"PAYLOAD","GP_ID":"218098820","APOAPSIS":"511.943","REF_FRAME":"TEME","EPOCH":"2022-11-17T22:00:00.999936","FILE":"3661914","PERIAPSIS":"510.242","RCS_SIZE":"LARGE","COUNTRY_CODE":"US","SEMIMAJOR_AXIS":"6889.227","MEAN_MOTION_DOT":"-0.01077312","LAUNCH_DATE":"2022-07-17","DECAY_DATE":null,"CENTER_NAME":"EARTH","TIME_SYSTEM":"UTC","INCLINATION":"53.2159","MEAN_MOTION_DDOT":"0.0000000000000","MEAN_ELEMENT_THEORY":"SGP4","RA_OF_ASC_NODE":"161.1796"},{"RCS_SIZE":"LARGE","PERIAPSIS":"538.676","TIME_SYSTEM":"UTC","DECAY_DATE":null,"LAUNCH_DATE":"2022-07-17","CENTER_NAME":"EARTH","COUNTRY_CODE":"US","SEMIMAJOR_AXIS":"6917.862","MEAN_MOTION_DOT":"-0.00007117","INCLINATION":"53.2174","MEAN_MOTION_DDOT":"0.0000000000000","RA_OF_ASC_NODE":"200.3882","MEAN_ELEMENT_THEORY":"SGP4","EPHEMERIS_TYPE":"0","CLASSIFICATION_TYPE":"U","TLE_LINE1":"1 53174U 22083AU  22320.94420894 -.00007117  00000-0 -42940-3 0  9994","ELEMENT_SET_NO":"999","MEAN_ANOMALY":"305.6634","ECCENTRICITY":"0.00015190","REF_FRAME":"TEME","OBJECT_TYPE":"PAYLOAD","APOAPSIS":"540.777","GP_ID":"218067637","FILE":"3661693","EPOCH":"2022-11-16T22:39:39.652416","REV_AT_EPOCH":"1873","TLE_LINE2":"2 53174  53.2174 200.3882 0001519  54.4500 305.6634 15.08846130 18733","BSTAR":"-0.00042940000000","NORAD_CAT_ID":"53174","MEAN_MOTION":"15.08846130","PERIOD":"95.437","SITE":"AFETR","OBJECT_NAME":"STARLINK-4205","ARG_OF_PERICENTER":"54.4500","OBJECT_ID":"2022-083AU"},{"RCS_SIZE":"LARGE","PERIAPSIS":"538.196","DECAY_DATE":null,"LAUNCH_DATE":"2022-07-17","TIME_SYSTEM":"UTC","CENTER_NAME":"EARTH","MEAN_MOTION_DOT":"-0.00000627","COUNTRY_CODE":"US","SEMIMAJOR_AXIS":"6917.877","MEAN_MOTION_DDOT":"0.0000000000000","INCLINATION":"53.2199","RA_OF_ASC_NODE":"200.1092","MEAN_ELEMENT_THEORY":"SGP4","CLASSIFICATION_TYPE":"U","TLE_LINE1":"1 53175U 22083AV  22321.00679495 -.00000627  00000-0 -21275-4 0  9994","ELEMENT_SET_NO":"999","EPHEMERIS_TYPE":"0","ECCENTRICITY":"0.00022340","MEAN_ANOMALY":"318.7029","REF_FRAME":"TEME","APOAPSIS":"541.287","GP_ID":"218068156","OBJECT_TYPE":"PAYLOAD","FILE":"3661693","EPOCH":"2022-11-17T00:09:47.083680","TLE_LINE2":"2 53175  53.2199 200.1092 0002234  41.4132 318.7029 15.08841139 18742","REV_AT_EPOCH":"1874","BSTAR":"-0.00002127500000","NORAD_CAT_ID":"53175","MEAN_MOTION":"15.08841139","PERIOD":"95.437","OBJECT_NAME":"STARLINK-4292","SITE":"AFETR","OBJECT_ID":"2022-083AV","ARG_OF_PERICENTER":"41.4132"},{"ARG_OF_PERICENTER":"53.5749","OBJECT_ID":"2022-083AW","SITE":"AFETR","OBJECT_NAME":"STARLINK-4294","PERIOD":"95.437","MEAN_MOTION":"15.08845564","NORAD_CAT_ID":"53176","BSTAR":"0.00009078100000","REV_AT_EPOCH":"1909","TLE_LINE2":"2 53176  53.2166 175.0383 0002094  53.5749 306.5436 15.08845564 19094","EPOCH":"2022-11-17T00:27:42.837984","FILE":"3661693","OBJECT_TYPE":"PAYLOAD","APOAPSIS":"541.177","GP_ID":"218068304","REF_FRAME":"TEME","MEAN_ANOMALY":"306.5436","ECCENTRICITY":"0.00020940","EPHEMERIS_TYPE":"0","CLASSIFICATION_TYPE":"U","TLE_LINE1":"1 53176U 22083AW  22321.01924581  .00001157  00000-0  90781-4 0  9990","ELEMENT_SET_NO":"999","MEAN_ELEMENT_THEORY":"SGP4","RA_OF_ASC_NODE":"175.0383","INCLINATION":"53.2166","MEAN_MOTION_DDOT":"0.0000000000000","COUNTRY_CODE":"US","SEMIMAJOR_AXIS":"6917.863","MEAN_MOTION_DOT":"0.00001157","LAUNCH_DATE":"2022-07-17","DECAY_DATE":null,"CENTER_NAME":"EARTH","TIME_SYSTEM":"UTC","PERIAPSIS":"538.280","RCS_SIZE":"LARGE"},{"MEAN_ANOMALY":"240.3530","ECCENTRICITY":"0.00012600","TLE_LINE1":"1 53177U 22083AX  22321.91667824 -.01085428  00000-0 -55551-1 0  9993","ELEMENT_SET_NO":"999","CLASSIFICATION_TYPE":"U","EPHEMERIS_TYPE":"0","GP_ID":"218099144","APOAPSIS":"510.158","OBJECT_TYPE":"PAYLOAD","REF_FRAME":"TEME","EPOCH":"2022-11-17T22:00:00.999936","FILE":"3661914","PERIAPSIS":"508.422","RCS_SIZE":"LARGE","MEAN_MOTION_DOT":"-0.01085428","COUNTRY_CODE":"US","SEMIMAJOR_AXIS":"6887.425","DECAY_DATE":null,"CENTER_NAME":"EARTH","LAUNCH_DATE":"2022-07-17","TIME_SYSTEM":"UTC","MEAN_MOTION_DDOT":"0.0000000000000","INCLINATION":"53.2163","MEAN_ELEMENT_THEORY":"SGP4","RA_OF_ASC_NODE":"161.1874","BSTAR":"-0.05555100000000","MEAN_MOTION":"15.18859006","NORAD_CAT_ID":"53177","PERIOD":"94.808","OBJECT_ID":"2022-083AX","ARG_OF_PERICENTER":"112.7604","OBJECT_NAME":"STARLINK-4298","SITE":"AFETR","REV_AT_EPOCH":"130","TLE_LINE2":"2 53177  53.2163 161.1874 0001260 112.7604 240.3530 15.18859006  1307"},{"RCS_SIZE":"LARGE","PERIAPSIS":"537.899","LAUNCH_DATE":"2022-07-17","DECAY_DATE":null,"TIME_SYSTEM":"UTC","CENTER_NAME":"EARTH","MEAN_MOTION_DOT":"0.00001476","SEMIMAJOR_AXIS":"6917.882","COUNTRY_CODE":"US","MEAN_MOTION_DDOT":"0.0000000000000","INCLINATION":"53.2159","RA_OF_ASC_NODE":"186.5631","MEAN_ELEMENT_THEORY":"SGP4","CLASSIFICATION_TYPE":"U","TLE_LINE1":"1 53178U 22083AY  22321.79523248  .00001476  00000-0  11082-3 0  9992","ELEMENT_SET_NO":"999","EPHEMERIS_TYPE":"0","MEAN_ANOMALY":"327.9481","ECCENTRICITY":"0.00026720","REF_FRAME":"TEME","GP_ID":"218098978","APOAPSIS":"541.596","OBJECT_TYPE":"PAYLOAD","FILE":"3661914","EPOCH":"2022-11-17T19:05:08.086272","TLE_LINE2":"2 53178  53.2159 186.5631 0002672  32.1674 327.9481 15.08839441 18995","REV_AT_EPOCH":"1899","BSTAR":"0.00011082000000","NORAD_CAT_ID":"53178","MEAN_MOTION":"15.08839441","PERIOD":"95.438","OBJECT_NAME":"STARLINK-4280","SITE":"AFETR","OBJECT_ID":"2022-083AY","ARG_OF_PERICENTER":"32.1674"}];
